INTELSAT 23 (IS-23)     
1 38867U 12057A   26065.78505667 -.00000288  00000+0  00000+0 0  9997
2 38867   0.0474 260.7874 0001213  96.9853  36.3330  1.00269823 48922
FM-6                    
1 39360U 13058A   26065.55859565 -.00000021  00000+0  00000+0 0  9997
2 39360   0.0219 132.1280 0003132  55.3123  61.7610  1.00273294 45042
INTELSAT 30 (IS-30)     
1 40271U 14062A   26064.84965330 -.00000157  00000+0  00000+0 0  9995
2 40271   0.0186  81.7272 0001495  27.0241 265.6525  1.00273148  5757
DIRECTV 14              
1 40333U 14078B   26064.63477494  .00000000  00000+0  00000+0 0  9993
2 40333   0.0223 140.6418 0000594 348.2371 163.7954  1.00271102 41006
DIRECTV 15              
1 40663U 15026A   26065.56119566 -.00000107  00000+0  00000+0 0  9998
2 40663   0.0234 103.4295 0000619  85.1790  74.8135  1.00272963 39437
SKY MEXICO-1            
1 40664U 15026B   26064.42495398 -.00000242  00000+0  00000+0 0  9993
2 40664   0.0200 125.8533 0002250 238.8701 232.6041  1.00269501 39418
INTELSAT 34 (IS-34)     
1 40874U 15039A   26065.49932310  .00000000  00000+0  00000+0 0  9999
2 40874   0.0146 175.2489 0000587 272.5618 200.6847  1.00267445 38594
INTELSAT 31 (IS-31)     
1 41581U 16035A   26065.18377969 -.00000156  00000+0  00000+0 0  9994
2 41581   0.0328 243.1779 0001579 352.3525 259.4775  1.00271168 35658
INTELSAT 36 (IS-36)     
1 41747U 16053A   26064.55705715 -.00000031  00000+0  00000+0 0  9994
2 41747   0.0200  99.8975 0001513 233.3854  99.0273  1.00269299 34917
INTELSAT 32E (IS-32E)   
1 41945U 17007B   26065.50174978 -.00000273  00000+0  00000+0 0  9999
2 41945   0.0149 127.3403 0000230 194.7853 339.5296  1.00272679 33198
INTELSAT 35E (IS-35E)   
1 42818U 17041A   26065.78869669 -.00000241  00000+0  00000+0 0  9990
2 42818   0.0178 226.4955 0002081 121.8703  65.5475  1.00272515 31781
INTELSAT 37E (IS-37E)   
1 42950U 17059A   26065.79199003 -.00000144  00000+0  00000+0 0  9997
2 42950   0.0201 141.0503 0002137 208.5886  81.9697  1.00271611 31035
AZERSPACE 2 (IS-38)     
1 43632U 18074A   26064.31642096  .00000000  00000+0  00000+0 0  9995
2 43632   0.0249 144.2303 0001446 216.1159 321.7363  1.00271143 27409
HORIZONS-3E             
1 43633U 18074B   26064.90195612 -.00000037  00000+0  00000+0 0  9999
2 43633   0.0160 332.6823 0000535  13.4082 311.2086  1.00271692 27307
AT&T T-16               
1 44333U 19034A   26064.99113649 -.00000121  00000+0  00000+0 0  9997
2 44333   0.0236 101.3996 0000890  62.4405 255.8141  1.00273702 24595
INTELSAT 39 (IS-39)     
1 44476U 19049B   26064.45286078  .00000000  00000+0  00000+0 0  9994
2 44476   0.0244 149.9814 0000721 354.7122 243.4677  1.00269682 24088
GALAXY 30 (G-30)        
1 46114U 20056C   26065.55677565  .00000000  00000+0  00000+0 0  9992
2 46114   0.0219 155.3844 0002048 200.5806 243.7632  1.00271670 20266
